#aV2022  8 12  0  0  0.00000000     288 DD+AD WGS84 FIT  NGA
## 2222 432000.00000000   300.00000000 59803 0.0000000000000
+   32     1  2  3  4  5  6  7  8  9 10 11 12 13 14 15 16 17
+         18 19 20 21 22 23 24 25 26 27 28 29 30 31 32  0  0
+          0  0  0  0  0  0  0  0  0  0  0  0  0  0  0  0  0
+          0  0  0  0  0  0  0  0  0  0  0  0  0  0  0  0  0
+          0  0  0  0  0  0  0  0  0  0  0  0  0  0  0  0  0
++         2  2  2  2  2  2  2  2  2  2  2  2  2  2  2  2  2
++         2  2  2  2  2  2  2  2  2  2  2  2  2  2  2  0  0
++         0  0  0  0  0  0  0  0  0  0  0  0  0  0  0  0  0
++         0  0  0  0  0  0  0  0  0  0  0  0  0  0  0  0  0
++         0  0  0  0  0  0  0  0  0  0  0  0  0  0  0  0  0
%c cc cc ccc ccc cccc cccc cccc cccc ccccc ccccc ccccc ccccc
%c cc cc ccc ccc cccc cccc cccc cccc ccccc ccccc ccccc ccccc
%f  0.0000000  0.000000000  0.00000000000  0.000000000000000
%f  0.0000000  0.000000000  0.00000000000  0.000000000000000
%i    0    0    0    0      0      0      0      0         0
%i    0    0    0    0      0      0      0      0         0
/*      NGA, ST. LOUIS,MO.                                  
/*   EPHEMERIS COMPUTED FROM 2 DAYS OF DATA                 
/*   EPOCHA v8 SMOOTHER                                     
/*   G2139 IERS2010 SATIGS SATAPC                           
*  2022  8 12  7 10  0.00000000
P  1  11155.473001 -20728.385937 -12264.099412    303.616974                    
V  1  12524.074048  -8742.878430  27174.318950     -0.070500                    
P  2 -19277.092581  18155.004690  -2456.271623   -649.316273                    
V  2    790.248929  -4561.086323 -31561.278288      0.009741                    
P  3   4141.103594 -14383.843714 -22063.177271   -329.903167                    
V  3  26376.001224   8383.015242   -410.631394     -0.085492                    
P  4   2581.478863 -24419.327065 -10000.327340   -134.107251                    
V  4   4810.755370  12062.007674 -28286.660010      0.050292                    
P  5 -17716.791080   8149.176754  17920.202113    -92.581131                    
V  5 -21848.886254  -7515.924701 -17871.403175     -0.014198                    
P  6 -19035.082471    761.366337 -18481.523767    421.962314                    
V  6  16722.911773 -16541.109574 -17774.546119      0.142899                    
P  7  -4190.879674 -16307.027946  20849.799023    315.001953                    
V  7  19778.925752 -16430.348261  -9548.469948     -0.021252                    
P  8   7434.778015 -18939.598062  16839.206268    -80.132436                    
V  8   7031.618421  20512.207520  20264.331971     -0.015612                    
P  9  -6711.085169 -25666.790922    710.013266   -309.099468                    
V  9   2713.725907  -1671.941223 -31637.529070      0.042447                    
P 10  23227.580881  11727.784057   6227.082120   -525.114879                    
V 10  -7889.697841   -369.935831  30563.648840     -0.134297                    
P 11 -22662.130211  10454.357975  -9046.135157    -11.042731                    
V 11   7285.001985  -9233.128175 -28960.948994     -0.009682                    
P 12  -7171.654964  13448.257723 -22013.677919   -261.012326                    
V 12 -25296.601970 -10262.542551   2097.930172     -0.059681                    
P 13 -13186.832688  10379.835409  20380.956526    366.342058                    
V 13  -3145.967247 -26094.926311  11343.727185      0.072052                    
P 14 -21836.069953 -13351.674691   7305.584975   -109.533909                    
V 14   9672.063983    440.037011  29631.690527      0.014384                    
P 15  -5535.903601  19894.508422  16105.985440    -37.939999                    
V 15  -9876.082029 -19248.452218  20162.885011      0.030542                    
P 16  22360.534559  -1339.468902  14342.974365   -520.096575                    
V 16  16388.341758   8738.521764 -23825.234055     -0.016966                    
P 17 -12616.120204 -18044.073944 -14379.616708    647.487576                    
V 17  -1081.630671 -19067.030278  24205.872655      0.041041                    
P 18   3780.940498  15764.139872  21003.410264     84.418289                    
V 18 -20546.625455  17048.056997  -9217.374046     -0.120578                    
P 19 -14877.411890  -8820.984422 -20474.207938    196.099084                    
V 19  -2074.945660 -25251.928664  12304.149673      0.050254                    
P 20 -25229.886175   1889.746091   7690.081666    495.480501                    
V 20  -9251.776141  -4720.844915 -29437.564328     -0.031484                    
P 21  16813.735273 -19907.462974  -1754.302063    160.555223                    
V 21   4611.835494    153.166820  32122.004493     -0.003156                    
P 22  15252.567008   5758.994140 -20585.626438    308.428445                    
V 22   2820.244602  26922.009873   9260.234800      0.066076                    
P 23  15854.750457  15223.968896  14984.047160    -36.597990                    
V 23 -18737.020426  -3513.054403  23258.630936     -0.013125                    
P 24 -12639.418097  21915.839395  -7656.937732    170.793161                    
V 24  -9161.308919   4407.880032  29326.358865     -0.113769                    
P 25   7429.769160  16774.552809 -19585.794625    359.904016                    
V 25 -23444.475190  -6052.600785 -14020.073331      0.042753                    
P 26  26075.289899   2740.324362   5116.585637    223.260660                    
V 26   5572.091726   4748.168793 -30104.102024      0.019372                    
P 27  13702.742142  -6334.115759  21604.392208    219.609930                    
V 27   6547.441498  27181.866205   4158.935464     -0.015222                    
P 28 -24583.610398  -9570.237199  -1096.820938    340.206569                    
V 28   -749.141238  -3400.340674  32015.792104      0.009864                    
P 29   4212.759325  26168.045954    715.094936   -542.067155                    
V 29  -2106.488508   1277.376574 -32220.147413     -0.033680                    
P 30 -13899.580900  -8474.568144  21109.835458   -535.743702                    
V 30  19599.233503 -18073.786919   5419.539866     -0.005954                    
P 31  20858.391392  -2550.078862 -16644.546155   -189.335556                    
V 31 -14543.341391  14849.766854 -20212.770862     -0.014254                    
P 32  14963.965909  14933.565774 -16045.857268   -201.597013                    
V 32   2772.680595  20476.433915  21255.991051     -0.105951                    
EOF
